start=new Date('2023-06-23T00:00:00.000Z').valueOf();
sats=[{"ARG_OF_PERICENTER":"83.8795","MEAN_MOTION_DDOT":"0.0000000000000","OBJECT_TYPE":"PAYLOAD","EPHEMERIS_TYPE":"0","RCS_SIZE":"LARGE","BSTAR":"0.00000396120000","INCLINATION":"53.0453","MEAN_ELEMENT_THEORY":"SGP4","SITE":"AFETR","MEAN_MOTION":"15.76728859","OBJECT_ID":"2020-025BF","TLE_LINE2":"2 45584  53.0453 179.9774 0001445  83.8795 276.2389 15.76728859176410","FILE":"3940263","ECCENTRICITY":"0.00014450","MEAN_ANOMALY":"276.2389","EPOCH":"2023-06-21T17:30:58.594176","CENTER_NAME":"EARTH","SEMIMAJOR_AXIS":"6717.853","PERIOD":"91.328","RA_OF_ASC_NODE":"179.9774","DECAY_DATE":null,"TLE_LINE1":"1 45584U 20025BF  23172.72984484 -.00000007  00000-0  39612-5 0  9990","ELEMENT_SET_NO":"999","REF_FRAME":"TEME","CLASSIFICATION_TYPE":"U","APOAPSIS":"340.689","MEAN_MOTION_DOT":"-0.00000007","TIME_SYSTEM":"UTC","COUNTRY_CODE":"US","PERIAPSIS":"338.747","GP_ID":"234485408","REV_AT_EPOCH":"17641","LAUNCH_DATE":"2020-04-22","OBJECT_NAME":"STARLINK-1343","NORAD_CAT_ID":"45584"},{"EPHEMERIS_TYPE":"0","OBJECT_TYPE":"PAYLOAD","ARG_OF_PERICENTER":"109.0868","MEAN_MOTION_DDOT":"0.0000000000000","BSTAR":"0.00004207700000","INCLINATION":"53.0521","MEAN_ELEMENT_THEORY":"SGP4","RCS_SIZE":"LARGE","SITE":"AFETR","OBJECT_ID":"2020-025BH","MEAN_MOTION":"15.06394492","TLE_LINE2":"2 45586  53.0521 207.9302 0001143 109.0868 251.0245 15.06394492175443","ECCENTRICITY":"0.00011430","FILE":"3939399","EPOCH":"2023-06-22T02:58:08.197536","CENTER_NAME":"EARTH","MEAN_ANOMALY":"251.0245","SEMIMAJOR_AXIS":"6925.365","CLASSIFICATION_TYPE":"U","PERIOD":"95.592","RA_OF_ASC_NODE":"207.9302","DECAY_DATE":null,"TLE_LINE1":"1 45586U 20025BH  23173.12370599  .00000345  00000-0  42077-4 0  9995","ELEMENT_SET_NO":"999","REF_FRAME":"TEME","COUNTRY_CODE":"US","TIME_SYSTEM":"UTC","PERIAPSIS":"546.439","GP_ID":"234445154","REV_AT_EPOCH":"17544","APOAPSIS":"548.022","MEAN_MOTION_DOT":"0.00000345","LAUNCH_DATE":"2020-04-22","NORAD_CAT_ID":"45586","OBJECT_NAME":"STARLINK-1347"},{"OBJECT_NAME":"STARLINK-1349","NORAD_CAT_ID":"45587","LAUNCH_DATE":"2020-04-22","REV_AT_EPOCH":"17545","GP_ID":"234445032","PERIAPSIS":"546.383","TIME_SYSTEM":"UTC","COUNTRY_CODE":"US","MEAN_MOTION_DOT":"0.00002459","APOAPSIS":"548.040","CLASSIFICATION_TYPE":"U","REF_FRAME":"TEME","DECAY_DATE":null,"TLE_LINE1":"1 45587U 20025BJ  23173.09421933  .00002459  00000-0  18393-3 0  9992","ELEMENT_SET_NO":"999","RA_OF_ASC_NODE":"208.0645","PERIOD":"95.592","SEMIMAJOR_AXIS":"6925.347","CENTER_NAME":"EARTH","EPOCH":"2023-06-22T02:15:40.550112","MEAN_ANOMALY":"269.5367","ECCENTRICITY":"0.00011970","FILE":"3939389","TLE_LINE2":"2 45587  53.0515 208.0645 0001197  90.5759 269.5367 15.06400661175457","MEAN_MOTION":"15.06400661","OBJECT_ID":"2020-025BJ","SITE":"AFETR","MEAN_ELEMENT_THEORY":"SGP4","INCLINATION":"53.0515","BSTAR":"0.00018393000000","RCS_SIZE":"LARGE","EPHEMERIS_TYPE":"0","OBJECT_TYPE":"PAYLOAD","MEAN_MOTION_DDOT":"0.0000000000000","ARG_OF_PERICENTER":"90.5759"},{"CENTER_NAME":"EARTH","EPOCH":"2023-06-22T19:14:45.643488","MEAN_ANOMALY":"263.8831","OBJECT_ID":"2020-025BK","MEAN_MOTION":"15.06406895","SITE":"AFETR","FILE":"3940101","ECCENTRICITY":"0.00012690","TLE_LINE2":"2 45588  53.0536 204.8894 0001269  96.2302 263.8831 15.06406895175557","INCLINATION":"53.0536","BSTAR":"-0.00029084000000","MEAN_ELEMENT_THEORY":"SGP4","RCS_SIZE":"LARGE","EPHEMERIS_TYPE":"0","OBJECT_TYPE":"PAYLOAD","ARG_OF_PERICENTER":"96.2302","MEAN_MOTION_DDOT":"0.0000000000000","OBJECT_NAME":"STARLINK-1360","NORAD_CAT_ID":"45588","LAUNCH_DATE":"2020-04-22","PERIAPSIS":"546.314","TIME_SYSTEM":"UTC","COUNTRY_CODE":"US","REV_AT_EPOCH":"17555","GP_ID":"234462374","APOAPSIS":"548.071","MEAN_MOTION_DOT":"-0.00004612","CLASSIFICATION_TYPE":"U","RA_OF_ASC_NODE":"204.8894","PERIOD":"95.592","REF_FRAME":"TEME","TLE_LINE1":"1 45588U 20025BK  23173.80191717 -.00004612  00000-0 -29084-3 0  9990","ELEMENT_SET_NO":"999","DECAY_DATE":null,"SEMIMAJOR_AXIS":"6925.327"},{"CLASSIFICATION_TYPE":"U","REF_FRAME":"TEME","ELEMENT_SET_NO":"999","TLE_LINE1":"1 45589U 20025BL  23173.40015542  .00000192  00000-0  31801-4 0  9996","DECAY_DATE":null,"RA_OF_ASC_NODE":"206.6914","PERIOD":"95.592","SEMIMAJOR_AXIS":"6925.362","OBJECT_NAME":"STARLINK-1364","NORAD_CAT_ID":"45589","LAUNCH_DATE":"2020-04-22","REV_AT_EPOCH":"17549","GP_ID":"234452374","PERIAPSIS":"546.412","COUNTRY_CODE":"US","TIME_SYSTEM":"UTC","MEAN_MOTION_DOT":"0.00000192","APOAPSIS":"548.041","MEAN_ELEMENT_THEORY":"SGP4","INCLINATION":"53.0531","BSTAR":"0.00003180100000","RCS_SIZE":"LARGE","EPHEMERIS_TYPE":"0","OBJECT_TYPE":"PAYLOAD","MEAN_MOTION_DDOT":"0.0000000000000","ARG_OF_PERICENTER":"80.3560","CENTER_NAME":"EARTH","EPOCH":"2023-06-22T09:36:13.428288","MEAN_ANOMALY":"279.7562","ECCENTRICITY":"0.00011760","FILE":"3939703","TLE_LINE2":"2 45589  53.0531 206.6914 0001176  80.3560 279.7562 15.06395721175498","OBJECT_ID":"2020-025BL","MEAN_MOTION":"15.06395721","SITE":"AFETR"},{"CLASSIFICATION_TYPE":"U","PERIOD":"95.593","RA_OF_ASC_NODE":"236.6242","TLE_LINE1":"1 45590U 20025BM  23173.41582116  .00000815  00000-0  73636-4 0  9999","DECAY_DATE":null,"ELEMENT_SET_NO":"999","REF_FRAME":"TEME","SEMIMAJOR_AXIS":"6925.370","LAUNCH_DATE":"2020-04-22","NORAD_CAT_ID":"45590","OBJECT_NAME":"STARLINK-1365","TIME_SYSTEM":"UTC","COUNTRY_CODE":"US","PERIAPSIS":"546.278","GP_ID":"234453129","REV_AT_EPOCH":"17508","APOAPSIS":"548.192","MEAN_MOTION_DOT":"0.00000815","BSTAR":"0.00007363600000","INCLINATION":"53.0542","MEAN_ELEMENT_THEORY":"SGP4","RCS_SIZE":"LARGE","EPHEMERIS_TYPE":"0","OBJECT_TYPE":"PAYLOAD","MEAN_MOTION_DDOT":"0.0000000000000","ARG_OF_PERICENTER":"101.8232","EPOCH":"2023-06-22T09:58:46.948224","CENTER_NAME":"EARTH","MEAN_ANOMALY":"258.2912","SITE":"AFETR","OBJECT_ID":"2020-025BM","MEAN_MOTION":"15.06393110","TLE_LINE2":"2 45590  53.0542 236.6242 0001382 101.8232 258.2912 15.06393110175089","ECCENTRICITY":"0.00013820","FILE":"3939727"},{"OBJECT_NAME":"STARLINK-1441","NORAD_CAT_ID":"45658","LAUNCH_DATE":"2020-06-04","PERIAPSIS":"546.490","TIME_SYSTEM":"UTC","COUNTRY_CODE":"US","REV_AT_EPOCH":"16886","GP_ID":"234449635","APOAPSIS":"547.939","MEAN_MOTION_DOT":"0.00002135","CLASSIFICATION_TYPE":"U","RA_OF_ASC_NODE":"198.2196","PERIOD":"95.592","REF_FRAME":"TEME","TLE_LINE1":"1 45658U 20035B   23173.05827947  .00002135  00000-0  16216-3 0  9996","ELEMENT_SET_NO":"999","DECAY_DATE":null,"SEMIMAJOR_AXIS":"6925.349","CENTER_NAME":"EARTH","EPOCH":"2023-06-22T01:23:55.346208","MEAN_ANOMALY":"276.1592","OBJECT_ID":"2020-035B","MEAN_MOTION":"15.06399704","SITE":"AFETR","FILE":"3939581","ECCENTRICITY":"0.00010460","TLE_LINE2":"2 45658  53.0511 198.2196 0001046  83.9517 276.1592 15.06399704168860","INCLINATION":"53.0511","BSTAR":"0.00016216000000","MEAN_ELEMENT_THEORY":"SGP4","RCS_SIZE":"LARGE","OBJECT_TYPE":"PAYLOAD","EPHEMERIS_TYPE":"0","ARG_OF_PERICENTER":"83.9517","MEAN_MOTION_DDOT":"0.0000000000000"},{"OBJECT_ID":"2020-035C","MEAN_MOTION":"15.06386906","SITE":"AFETR","ECCENTRICITY":"0.00011090","FILE":"3939833","TLE_LINE2":"2 45659  53.0521 197.0231 0001109  88.8546 271.2570 15.06386906168902","CENTER_NAME":"EARTH","EPOCH":"2023-06-22T07:50:02.549760","MEAN_ANOMALY":"271.2570","EPHEMERIS_TYPE":"0","OBJECT_TYPE":"PAYLOAD","MEAN_MOTION_DDOT":"0.0000000000000","ARG_OF_PERICENTER":"88.8546","INCLINATION":"53.0521","BSTAR":"-0.00001765800000","MEAN_ELEMENT_THEORY":"SGP4","RCS_SIZE":"LARGE","PERIAPSIS":"546.486","TIME_SYSTEM":"UTC","COUNTRY_CODE":"US","REV_AT_EPOCH":"16890","GP_ID":"234456173","APOAPSIS":"548.022","MEAN_MOTION_DOT":"-0.00000544","NORAD_CAT_ID":"45659","OBJECT_NAME":"STARLINK-1442","LAUNCH_DATE":"2020-06-04","SEMIMAJOR_AXIS":"6925.389","CLASSIFICATION_TYPE":"U","RA_OF_ASC_NODE":"197.0231","PERIOD":"95.593","REF_FRAME":"TEME","DECAY_DATE":null,"TLE_LINE1":"1 45659U 20035C   23173.32641840 -.00000544  00000-0 -17658-4 0  9999","ELEMENT_SET_NO":"999"},{"APOAPSIS":"547.982","MEAN_MOTION_DOT":"0.00002796","PERIAPSIS":"546.474","TIME_SYSTEM":"UTC","COUNTRY_CODE":"US","REV_AT_EPOCH":"16886","GP_ID":"234449651","OBJECT_NAME":"STARLINK-1443","NORAD_CAT_ID":"45660","LAUNCH_DATE":"2020-06-04","SEMIMAJOR_AXIS":"6925.363","RA_OF_ASC_NODE":"198.1705","PERIOD":"95.592","REF_FRAME":"TEME","TLE_LINE1":"1 45660U 20035D   23173.06934538  .00002796  00000-0  20655-3 0  9990","DECAY_DATE":null,"ELEMENT_SET_NO":"999","CLASSIFICATION_TYPE":"U","OBJECT_ID":"2020-035D","MEAN_MOTION":"15.06395292","SITE":"AFETR","FILE":"3939582","ECCENTRICITY":"0.00010890","TLE_LINE2":"2 45660  53.0513 198.1705 0001089  90.6953 269.4161 15.06395292168861","MEAN_ANOMALY":"269.4161","CENTER_NAME":"EARTH","EPOCH":"2023-06-22T01:39:51.440832","MEAN_MOTION_DDOT":"0.0000000000000","ARG_OF_PERICENTER":"90.6953","OBJECT_TYPE":"PAYLOAD","EPHEMERIS_TYPE":"0","RCS_SIZE":"LARGE","INCLINATION":"53.0513","BSTAR":"0.00020655000000","MEAN_ELEMENT_THEORY":"SGP4"},{"ARG_OF_PERICENTER":"79.0152","MEAN_MOTION_DDOT":"0.0000000000000","EPHEMERIS_TYPE":"0","OBJECT_TYPE":"PAYLOAD","RCS_SIZE":"LARGE","BSTAR":"0.00024797000000","INCLINATION":"53.0516","MEAN_ELEMENT_THEORY":"SGP4","SITE":"AFETR","MEAN_MOTION":"15.06402069","OBJECT_ID":"2020-035E","TLE_LINE2":"2 45661  53.0516 198.6865 0001518  79.0152 281.1007 15.06402069168834","ECCENTRICITY":"0.00015180","FILE":"3939582","MEAN_ANOMALY":"281.1007","EPOCH":"2023-06-21T22:55:18.931008","CENTER_NAME":"EARTH","SEMIMAJOR_AXIS":"6925.342","PERIOD":"95.592","RA_OF_ASC_NODE":"198.6865","TLE_LINE1":"1 45661U 20035E   23172.95508022  .00003414  00000-0  24797-3 0  9992","ELEMENT_SET_NO":"999","DECAY_DATE":null,"REF_FRAME":"TEME","CLASSIFICATION_TYPE":"U","APOAPSIS":"548.258","MEAN_MOTION_DOT":"0.00003414","COUNTRY_CODE":"US","TIME_SYSTEM":"UTC","PERIAPSIS":"546.156","GP_ID":"234449650","REV_AT_EPOCH":"16883","LAUNCH_DATE":"2020-06-04","OBJECT_NAME":"STARLINK-1444","NORAD_CAT_ID":"45661"}];
